IXPE                    
1 49954U 21121A   23332.35827395  .00008324  00000+0  65806-3 0  9997
2 49954   0.2298  87.6148 0009971 168.6340 103.6402 14.95629292107612
